satname,norad_id,inclination_deg,eccentricity,mean_motion_rev_per_day,perigee_km,apogee_km,l1,l2
STARLINK-1225,45187,53.1586,0.0001341,15.30840066,472.38583531584027,474.223391956617,1 45187U 20012K   26106.62173419  .00030996  00000+0  10337-2 0  9990,2 45187  53.1586 223.4563 0001341  39.9451 320.1649 15.30840066340746
STARLINK-1230,45189,53.1576,9.91e-05,15.30829202,472.6580480959319,474.01601024851334,1 45189U 20012M   26106.63125007  .00014730  00000+0  49873-3 0  9999,2 45189  53.1576 223.4678 0000991  37.3994 322.7076 15.30829202337970
STARLINK-1234,45190,53.0407,0.0009012,15.67919976,358.7772031387167,370.93077009299304,1 45190U 20012N   26106.37787045  .00032556  00000+0  29266-3 0  9998,2 45190  53.0407 140.1377 0009012  45.7570 314.4184 15.67919976341781
STARLINK-1269,45197,53.1575,0.0001398,15.3088178,472.2223386212563,474.13796689716764,1 45197U 20012V   26106.56242543  .00011299  00000+0  38489-3 0  9993,2 45197  53.1575 223.6459 0001398  14.8221 345.2821 15.30881780340715
STARLINK-1154,45198,53.0453,0.0003336,15.52442368,407.3331670079251,411.86194350319147,1 45198U 20012W   26106.93892582  .00044208  00000+0  71427-3 0  9994,2 45198  53.0453 186.6443 0003336 295.2731  64.7932 15.52442368341228
STARLINK-1199,45201,53.1598,0.0001843,15.30841447,472.03777316530704,474.5632130252616,1 45201U 20012Z   26106.79316038  .00023895  00000+0  80031-3 0  9990,2 45201  53.1598 206.8218 0001843  33.9610 326.1509 15.30841447340998
STARLINK-1209,45206,53.0416,0.0012055,15.57923783,385.50343824098945,401.83025731798534,1 45206U 20012AE  26106.41177871  .00052953  00000+0  69581-3 0  9998,2 45206  53.0416 151.1551 0012055  30.1057 330.0645 15.57923783340789
STARLINK-1231,45212,53.0359,0.0003321,15.24437342,490.193776722298,494.75723754953833,1 45212U 20012AL  26106.68073011  .00021140  00000+0  86146-3 0  9995,2 45212  53.0359 200.8369 0003321 279.8205  80.2416 15.24437342341016
STARLINK-1271,45217,53.1595,0.000141,15.30722528,472.68923611277387,474.62144155232454,1 45217U 20012AR  26106.59594013  .00029287  00000+0  98110-3 0  9994,2 45217  53.1595 207.8699 0001410  32.3872 327.7215 15.30722528340965
STARLINK-1191,45222,53.1567,0.0004906,15.34068603,460.3317997018703,467.0449987836082,1 45222U 20012AW  26106.50705099  .00032271  00000+0  97202-3 0  9997,2 45222  53.1567 182.6764 0004906   6.1203 353.9859 15.34068603341319
STARLINK-1212,45223,53.0444,0.000584,15.597374,384.4647925143663,392.36812695533627,1 45223U 20012AX  26106.62043987  .00056261  00000+0  69137-3 0  9993,2 45223  53.0444 166.4480 0005840 334.9445  25.1283 15.59737400341545
STARLINK-1215,45225,53.1589,0.0001651,15.30856291,472.1250378750656,474.38736791066094,1 45225U 20012AZ  26106.66668981  .00059451  00000+0  19631-2 0  9993,2 45225  53.1589 181.8804 0001651  36.8229 323.1479 15.30856291  5884
STARLINK-1221,45227,53.0642,0.0003736,15.43260762,433.94733178145543,439.03922352491827,1 45227U 20012BB  26106.68234827  .00010303  00000+0  23707-3 0  9998,2 45227  53.0642  89.3825 0003736 104.5666 255.5754 15.43260762342574
STARLINK-1222,45228,53.0542,5.95e-05,15.51850313,410.91989002349146,411.72783586618243,1 45228U 20012BC  26106.58131404  .00022819  00000+0  38133-3 0  9999,2 45228  53.0542 160.8133 0000595 348.2252  11.8743 15.51850313341508
STARLINK-1226,45229,53.1584,0.0002423,15.38863311,447.81508424797175,451.1237423158491,1 45229U 20012BD  26106.91194040  .00034335  00000+0  88609-3 0  9991,2 45229  53.1584 179.8491 0002423  27.8498 332.2636 15.38863311341280
STARLINK-1227,45230,53.1571,0.0003359,15.38902382,447.0604951200712,451.64720347262846,1 45230U 20012BE  26106.92552499  .00030160  00000+0  77895-3 0  9997,2 45230  53.1571 179.9445 0003359  20.3917 339.7221 15.38902382341409
STARLINK-1246,45235,53.158,0.0001184,15.30824191,472.54076461239674,474.1631972030764,1 45235U 20012BK  26106.57218454  .00026174  00000+0  87572-3 0  9996,2 45235  53.1580 223.2615 0001184  43.8393 316.2702 15.30824191340774
STARLINK-1270,45237,53.0452,0.0004734,15.53614379,402.97175459020764,409.39514919405883,1 45237U 20012BM  26106.42503324  .00048319  00000+0  74718-3 0  9998,2 45237  53.0452 166.3968 0004734 354.9636   5.1325 15.53614379341520
STARLINK-1279,45360,53.0416,0.0004972,15.6560856,368.1332025966549,374.8450308071033,1 45360U 20019A   26106.85019449  .00087284  00000+0  84741-3 0  9990,2 45360  53.0416 272.4292 0004972 281.0033  79.0422 15.65608560336633
STARLINK-1301,45361,53.0405,0.0002878,15.69868872,357.33313155437736,361.21118426566954,1 45361U 20019B   26106.85331576  .00041217  00000+0  34105-3 0  9994,2 45361  53.0405 276.0689 0002878 328.6435  31.4410 15.69868872336591
STARLINK-1262,45366,53.1565,0.0001018,15.2996833,475.20913989689325,476.6046232311792,1 45366U 20019G   26106.96513385  .00026829  00000+0  92122-3 0  9996,2 45366  53.1565 347.5184 0001018 121.0447 239.0654 15.29968330335615
STARLINK-1273,45367,53.0488,0.000371,15.50078058,413.97714302005625,419.0187621548748,1 45367U 20019H   26106.90534570  .00043858  00000+0  77086-3 0  9993,2 45367  53.0488 332.2142 0003710 166.3882 193.7227 15.50078058335817
STARLINK-1277,45369,53.0488,0.0005382,15.55716163,396.42359868913536,403.71966245908607,1 45369U 20019K   26106.87318329  .00047075  00000+0  67438-3 0  9998,2 45369  53.0488 328.7491 0005382 167.8407 192.2734 15.55716163335865
STARLINK-1281,45370,53.161,8.22e-05,15.30878172,472.6277384682062,473.7540967778632,1 45370U 20019L   26106.94344696  .00026633  00000+0  88930-3 0  9991,2 45370  53.1610 347.5777 0000822 150.2960 209.8088 15.30878172335617
STARLINK-1300,45374,53.1607,0.0001041,15.30947093,472.2720897384743,473.6984933995791,1 45374U 20019Q   26106.96542093  .00027744  00000+0  92381-3 0  9997,2 45374  53.1607 347.4834 0001041  75.9024 284.2093 15.30947093335610
STARLINK-1302,45375,53.0495,0.0002192,15.60545256,384.598289119469,387.56372229317094,1 45375U 20019R   26106.89195018  .00037163  00000+0  44622-3 0  9992,2 45375  53.0495 326.4456 0002192 145.7602 214.3552 15.60545256335890
STARLINK-1304,45376,53.0477,0.0002995,15.54917062,400.3629616625167,404.4244995701547,1 45376U 20019S   26106.90597830  .00052528  00000+0  77381-3 0  9993,2 45376  53.0477 325.6643 0002995 169.6084 190.4989 15.54917062335901
STARLINK-1305,45377,53.0413,0.0007076,15.60873259,380.3476574096312,389.9190376054239,1 45377U 20019T   26106.84106049  .00102162  00000+0  11900-2 0  9999,2 45377  53.0413 307.2553 0007076 246.6484 113.3784 15.60873259336165
STARLINK-1319,45379,53.0427,0.0001748,15.69987372,357.7554949291207,360.1107746482421,1 45379U 20019V   26106.92294527  .00040123  00000+0  33058-3 0  9996,2 45379  53.0427 301.3223 0001748 199.7221 160.3728 15.69987372336259
STARLINK-1266,45383,53.0483,0.0004044,15.51554888,409.43966411591373,414.93167709189856,1 45383U 20019Z   26106.28648894  .00045997  00000+0  76660-3 0  9990,2 45383  53.0483 312.9577 0004044 169.8154 190.2937 15.51554888336023
STARLINK-1267,45384,53.0476,0.0001757,15.5683585,395.63092468408104,398.01164502537904,1 45384U 20019AA  26106.83903064  .00063076  00000+0  86334-3 0  9992,2 45384  53.0476 303.0339 0001757 291.2922  68.7901 15.56835850336211
STARLINK-1272,45386,53.042,0.000516,15.63796546,373.21659806745356,380.1875920135344,1 45386U 20019AC  26106.78940663  .00070614  00000+0  73915-3 0  9991,2 45386  53.0420 284.1968 0005160 267.6556  92.3867 15.63796546336479
STARLINK-1274,45387,53.0244,0.0005117,15.53446627,403.2000685669436,410.1436419494148,1 45387U 20019AD  26106.62869184  .00052676  00000+0  81833-3 0  9999,2 45387  53.0244 280.7067 0005117 310.8037  49.2527 15.53446627336502
STARLINK-1280,45388,53.0408,0.0001752,15.70549187,356.1463346192695,358.50644099035617,1 45388U 20019AE  26106.51083306  .00040178  00000+0  32339-3 0  9993,2 45388  53.0408 296.0086 0001752 245.8991 114.1843 15.70549187336274
STARLINK-1283,45389,53.0419,4.37e-05,15.65535881,371.40304534015377,371.9929809203004,1 45389U 20019AF  26106.78643850  .00033128  00000+0  32821-3 0  9992,2 45389  53.0419 283.7937 0000437 352.5284   7.5724 15.65535881336481
STARLINK-1284,45390,53.0456,0.0004281,15.58684408,388.56554664815394,394.3616786927223,1 45390U 20019AG  26106.84913082  .00058473  00000+0  74754-3 0  9999,2 45390  53.0456 306.4158 0004281 187.8009 172.2936 15.58684408336169
STARLINK-1297,45395,53.0444,0.0004904,15.61946748,378.7189808336743,385.3493567160076,1 45395U 20019AM  26106.92024415  .00064784  00000+0  72992-3 0  9990,2 45395  53.0444 305.0092 0004904 191.1064 168.9842 15.61946748335376
STARLINK-1307,45397,53.0541,0.0001603,15.53276049,406.08089207239027,408.25626104023377,1 45397U 20019AP  26106.87889066  .00023090  00000+0  36656-3 0  9999,2 45397  53.0541 307.0651 0001603 109.9506 250.1676 15.53276049335987
STARLINK-1255,45399,53.039,0.0002899,15.59224294,387.93880554660245,391.8629138976694,1 45399U 20019AR  26106.85277426  .00064345  00000+0  80493-3 0  9996,2 45399  53.0390 278.0410 0002899 275.6906  84.3775 15.59224294336376
STARLINK-1260,45404,53.1589,0.0001723,15.33128639,465.30527578792135,467.6639323926902,1 45404U 20019AW  26106.29162642  .00023835  00000+0  74349-3 0  9996,2 45404  53.1589 314.2870 0001723 227.3474 132.7383 15.33128639335736
STARLINK-1263,45405,53.1602,5.47e-05,15.30777064,473.1178174907536,473.86738576917105,1 45405U 20019AX  26107.00002315  .00066392  00000+0  21943-2 0  9993,2 45405  53.1602 311.3047 0000547  70.8537 157.8276 15.30777064  5867
STARLINK-1265,45406,53.1605,0.0002899,15.33308822,463.9642740334448,467.9324747335122,1 45406U 20019AY  26106.55492729  .00040982  00000+0  12600-2 0  9992,2 45406  53.1605 313.1543 0002899 221.4465 138.6317 15.33308822335772
STARLINK-1278,45408,53.0395,0.0003431,15.63152299,376.23973223839675,380.8761763160219,1 45408U 20019BA  26106.52953048  .00072379  00000+0  77694-3 0  9997,2 45408  53.0395 306.2132 0003431 223.6653 136.4089 15.63152299335862
